IRIDIUM 57 [-]          
1 25273U 98019B   24099.91348014  .00000368  00000+0  12198-3 0  9990
2 25273  86.3962 327.1561 0002172  88.0518 272.0927 14.35142929362484
IRIDIUM 63 [-]          
1 25286U 98021B   24099.96341844  .00000502  00000+0  16734-3 0  9996
2 25286  86.3937 264.0080 0001913  95.4369 264.7046 14.35669257361525
IRIDIUM 69 [-]          
1 25319U 98026A   24099.95676608  .00000632  00000+0  19513-3 0  9998
2 25319  86.3921 278.6188 0003456  50.7461 309.4045 14.39872646360556
IRIDIUM 71 [-]          
1 25320U 98026B   24099.97205842  .00000565  00000+0  17259-3 0  9990
2 25320  86.3922 273.3835 0004202  85.3167 274.8512 14.40196932361078
IRIDIUM 73 [-]          
1 25344U 98032C   24099.90140767  .00000791  00000+0  19758-3 0  9997
2 25344  86.4439 230.9297 0002350  79.9118 280.2352 14.50401297367585
IRIDIUM 82 [-]          
1 25467U 98051A   24099.58793997  .00011069  00000+0  58030-3 0  9993
2 25467  86.3782 318.7574 0134669 115.7719 245.7487 15.07996543357994
IRIDIUM 2 [-]           
1 25527U 98066A   24099.91369227  .00088110  00000+0  89698-3 0  9993
2 25527  85.5112 348.0770 0003174 130.8791 229.2751 15.64837893397010
